start=new Date('2021-08-24T00:00:00.000Z').valueOf();
sats=[{"REV_AT_EPOCH":"1517","ECCENTRICITY":"0.00017360","TLE_LINE2":"2 48573  53.0448  18.4194 0001736 129.5053 230.6090 15.06390652 15173","REF_FRAME":"TEME","NORAD_CAT_ID":"48573","BSTAR":"-0.00004237500000","APOAPSIS":"548.444","ARG_OF_PERICENTER":"129.5053","MEAN_ELEMENT_THEORY":"SGP4","EPHEMERIS_TYPE":"0","TIME_SYSTEM":"UTC","ELEMENT_SET_NO":"999","DECAY_DATE":null,"MEAN_MOTION":"15.06390652","EPOCH":"2021-08-23T20:41:39.187104","SEMIMAJOR_AXIS":"6925.377","INCLINATION":"53.0448","SITE":"AFETR","PERIAPSIS":"546.040","RCS_SIZE":"LARGE","PERIOD":"95.593","MEAN_ANOMALY":"230.6090","TLE_LINE1":"1 48573U 21041W   21235.86225911 -.00000913  00000-0 -42375-4 0  9992","OBJECT_TYPE":"PAYLOAD","LAUNCH_DATE":"2021-05-15","COUNTRY_CODE":"US","FILE":"3102124","MEAN_MOTION_DDOT":"0.0000000000000","CENTER_NAME":"EARTH","CLASSIFICATION_TYPE":"U","OBJECT_ID":"2021-041W","MEAN_MOTION_DOT":"-0.00000913","GP_ID":"183332052","RA_OF_ASC_NODE":"18.4194","OBJECT_NAME":"STARLINK-2224"},{"NORAD_CAT_ID":"48574","ARG_OF_PERICENTER":"34.4665","MEAN_ELEMENT_THEORY":"SGP4","EPHEMERIS_TYPE":"0","BSTAR":"-0.00026061000000","APOAPSIS":"441.048","ECCENTRICITY":"0.00020110","REV_AT_EPOCH":"363","REF_FRAME":"TEME","TLE_LINE2":"2 48574  53.0560   4.5018 0002011  34.4665 154.9006 15.42180679  3639","PERIAPSIS":"438.306","SITE":"AFETR","RCS_SIZE":"LARGE","PERIOD":"93.374","ELEMENT_SET_NO":"999","MEAN_MOTION":"15.42180679","DECAY_DATE":null,"TIME_SYSTEM":"UTC","INCLINATION":"53.0560","EPOCH":"2021-08-23T22:00:00.999936","SEMIMAJOR_AXIS":"6817.812","FILE":"3102124","MEAN_MOTION_DDOT":"0.0000000000000","COUNTRY_CODE":"US","CENTER_NAME":"EARTH","MEAN_ANOMALY":"154.9006","OBJECT_TYPE":"PAYLOAD","LAUNCH_DATE":"2021-05-15","TLE_LINE1":"1 48574U 21041X   21235.91667824 -.00011745  00000-0 -26061-3 0  9990","GP_ID":"183331531","MEAN_MOTION_DOT":"-0.00011745","OBJECT_NAME":"STARLINK-2225","RA_OF_ASC_NODE":"4.5018","CLASSIFICATION_TYPE":"U","OBJECT_ID":"2021-041X"},{"MEAN_MOTION_DOT":"-0.00034746","GP_ID":"183332142","RA_OF_ASC_NODE":"7.4971","OBJECT_NAME":"STARLINK-2227","CLASSIFICATION_TYPE":"U","OBJECT_ID":"2021-041Y","COUNTRY_CODE":"US","FILE":"3102124","MEAN_MOTION_DDOT":"0.0000000000000","CENTER_NAME":"EARTH","MEAN_ANOMALY":"136.5087","TLE_LINE1":"1 48575U 21041Y   21235.91667824 -.00034746  00000-0 -79103-3 0  9992","OBJECT_TYPE":"PAYLOAD","LAUNCH_DATE":"2021-05-15","SITE":"AFETR","PERIAPSIS":"435.243","RCS_SIZE":"LARGE","PERIOD":"93.374","TIME_SYSTEM":"UTC","ELEMENT_SET_NO":"999","DECAY_DATE":null,"MEAN_MOTION":"15.42189262","EPOCH":"2021-08-23T22:00:00.999936","SEMIMAJOR_AXIS":"6817.786","INCLINATION":"53.0620","NORAD_CAT_ID":"48575","BSTAR":"-0.00079103000000","APOAPSIS":"444.060","ARG_OF_PERICENTER":"46.7620","MEAN_ELEMENT_THEORY":"SGP4","EPHEMERIS_TYPE":"0","REV_AT_EPOCH":"363","ECCENTRICITY":"0.00064660","TLE_LINE2":"2 48575  53.0620   7.4971 0006466  46.7620 136.5087 15.42189262  3634","REF_FRAME":"TEME"},{"CENTER_NAME":"EARTH","FILE":"3102124","MEAN_MOTION_DDOT":"0.0000000000000","COUNTRY_CODE":"US","OBJECT_TYPE":"PAYLOAD","LAUNCH_DATE":"2021-05-15","TLE_LINE1":"1 48576U 21041Z   21235.91667824 -.00041383  00000-0 -94411-3 0  9997","MEAN_ANOMALY":"151.6106","OBJECT_NAME":"STARLINK-2228","RA_OF_ASC_NODE":"4.5158","GP_ID":"183331621","MEAN_MOTION_DOT":"-0.00041383","OBJECT_ID":"2021-041Z","CLASSIFICATION_TYPE":"U","MEAN_ELEMENT_THEORY":"SGP4","ARG_OF_PERICENTER":"35.9155","EPHEMERIS_TYPE":"0","BSTAR":"-0.00094411000000","APOAPSIS":"441.054","NORAD_CAT_ID":"48576","REF_FRAME":"TEME","TLE_LINE2":"2 48576  53.0576   4.5158 0002249  35.9155 151.6106 15.42233641  3639","ECCENTRICITY":"0.00022490","REV_AT_EPOCH":"363","RCS_SIZE":"LARGE","PERIOD":"93.371","PERIAPSIS":"437.987","SITE":"AFETR","INCLINATION":"53.0576","EPOCH":"2021-08-23T22:00:00.999936","SEMIMAJOR_AXIS":"6817.656","ELEMENT_SET_NO":"999","DECAY_DATE":null,"MEAN_MOTION":"15.42233641","TIME_SYSTEM":"UTC"},{"ECCENTRICITY":"0.00016760","REV_AT_EPOCH":"1517","REF_FRAME":"TEME","TLE_LINE2":"2 48577  53.0570  18.4299 0001676 132.6208 227.4922 15.06392121 15170","NORAD_CAT_ID":"48577","ARG_OF_PERICENTER":"132.6208","MEAN_ELEMENT_THEORY":"SGP4","EPHEMERIS_TYPE":"0","BSTAR":"-0.00002155600000","APOAPSIS":"548.398","ELEMENT_SET_NO":"999","MEAN_MOTION":"15.06392121","DECAY_DATE":null,"TIME_SYSTEM":"UTC","INCLINATION":"53.0570","EPOCH":"2021-08-23T20:31:02.542656","SEMIMAJOR_AXIS":"6925.373","PERIAPSIS":"546.077","SITE":"AFETR","RCS_SIZE":"LARGE","PERIOD":"95.593","MEAN_ANOMALY":"227.4922","OBJECT_TYPE":"PAYLOAD","LAUNCH_DATE":"2021-05-15","TLE_LINE1":"1 48577U 21041AA  21235.85489054 -.00000603  00000-0 -21556-4 0  9999","FILE":"3102124","MEAN_MOTION_DDOT":"0.0000000000000","COUNTRY_CODE":"US","CENTER_NAME":"EARTH","CLASSIFICATION_TYPE":"U","OBJECT_ID":"2021-041AA","GP_ID":"183331711","MEAN_MOTION_DOT":"-0.00000603","OBJECT_NAME":"STARLINK-2231","RA_OF_ASC_NODE":"18.4299"},{"REF_FRAME":"TEME","TLE_LINE2":"2 48578  53.0553  18.1912 0001437 120.8006 239.3125 15.06392534 15187","ECCENTRICITY":"0.00014370","REV_AT_EPOCH":"1518","EPHEMERIS_TYPE":"0","ARG_OF_PERICENTER":"120.8006","MEAN_ELEMENT_THEORY":"SGP4","APOAPSIS":"548.232","BSTAR":"-0.00003352800000","NORAD_CAT_ID":"48578","INCLINATION":"53.0553","SEMIMAJOR_AXIS":"6925.371","EPOCH":"2021-08-23T21:38:41.064288","MEAN_MOTION":"15.06392534","DECAY_DATE":null,"ELEMENT_SET_NO":"999","TIME_SYSTEM":"UTC","PERIOD":"95.593","RCS_SIZE":"LARGE","PERIAPSIS":"546.241","SITE":"AFETR","LAUNCH_DATE":"2021-05-15","OBJECT_TYPE":"PAYLOAD","TLE_LINE1":"1 48578U 21041AB  21235.90186417 -.00000781  00000-0 -33528-4 0  9992","MEAN_ANOMALY":"239.3125","CENTER_NAME":"EARTH","MEAN_MOTION_DDOT":"0.0000000000000","FILE":"3102124","COUNTRY_CODE":"US","OBJECT_ID":"2021-041AB","CLASSIFICATION_TYPE":"U","OBJECT_NAME":"STARLINK-2232","RA_OF_ASC_NODE":"18.1912","GP_ID":"183331873","MEAN_MOTION_DOT":"-0.00000781"},{"MEAN_MOTION_DOT":"-0.00001035","GP_ID":"183331801","RA_OF_ASC_NODE":"18.4564","OBJECT_NAME":"STARLINK-2233","CLASSIFICATION_TYPE":"U","OBJECT_ID":"2021-041AC","COUNTRY_CODE":"US","MEAN_MOTION_DDOT":"0.0000000000000","FILE":"3102124","CENTER_NAME":"EARTH","MEAN_ANOMALY":"239.1575","TLE_LINE1":"1 48579U 21041AC  21235.84383167 -.00001035  00000-0 -50596-4 0  9994","LAUNCH_DATE":"2021-05-15","OBJECT_TYPE":"PAYLOAD","SITE":"AFETR","PERIAPSIS":"546.180","PERIOD":"95.593","RCS_SIZE":"LARGE","TIME_SYSTEM":"UTC","MEAN_MOTION":"15.06389887","DECAY_DATE":null,"ELEMENT_SET_NO":"999","SEMIMAJOR_AXIS":"6925.380","EPOCH":"2021-08-23T20:15:07.056288","INCLINATION":"53.0573","NORAD_CAT_ID":"48579","APOAPSIS":"548.309","BSTAR":"-0.00005059600000","EPHEMERIS_TYPE":"0","MEAN_ELEMENT_THEORY":"SGP4","ARG_OF_PERICENTER":"120.9565","REV_AT_EPOCH":"1517","ECCENTRICITY":"0.00015370","TLE_LINE2":"2 48579  53.0573  18.4564 0001537 120.9565 239.1575 15.06389887 15171","REF_FRAME":"TEME"},{"REF_FRAME":"TEME","TLE_LINE2":"2 48580  53.0576   4.5170 0002001  36.7255 150.0817 15.42195837  3630","ECCENTRICITY":"0.00020010","REV_AT_EPOCH":"363","ARG_OF_PERICENTER":"36.7255","MEAN_ELEMENT_THEORY":"SGP4","EPHEMERIS_TYPE":"0","BSTAR":"-0.00100530000000","APOAPSIS":"440.996","NORAD_CAT_ID":"48580","INCLINATION":"53.0576","EPOCH":"2021-08-23T22:00:00.999936","SEMIMAJOR_AXIS":"6817.767","ELEMENT_SET_NO":"999","DECAY_DATE":null,"MEAN_MOTION":"15.42195837","TIME_SYSTEM":"UTC","RCS_SIZE":"LARGE","PERIOD":"93.373","PERIAPSIS":"438.268","SITE":"AFETR","OBJECT_TYPE":"PAYLOAD","LAUNCH_DATE":"2021-05-15","TLE_LINE1":"1 48580U 21041AD  21235.91667824 -.00043967  00000-0 -10053-2 0  9991","MEAN_ANOMALY":"150.0817","CENTER_NAME":"EARTH","FILE":"3102124","MEAN_MOTION_DDOT":"0.0000000000000","COUNTRY_CODE":"US","OBJECT_ID":"2021-041AD","CLASSIFICATION_TYPE":"U","OBJECT_NAME":"STARLINK-2234","RA_OF_ASC_NODE":"4.5170","GP_ID":"183331963","MEAN_MOTION_DOT":"-0.00043967"},{"REF_FRAME":"TEME","TLE_LINE2":"2 48581  53.0550   6.6414 0001726  42.5735 140.3983 15.42168180  3635","ECCENTRICITY":"0.00017260","REV_AT_EPOCH":"363","MEAN_ELEMENT_THEORY":"SGP4","ARG_OF_PERICENTER":"42.5735","EPHEMERIS_TYPE":"0","BSTAR":"0.00025791000000","APOAPSIS":"440.890","NORAD_CAT_ID":"48581","INCLINATION":"53.0550","EPOCH":"2021-08-23T22:00:00.999936","SEMIMAJOR_AXIS":"6817.849","ELEMENT_SET_NO":"999","MEAN_MOTION":"15.42168180","DECAY_DATE":null,"TIME_SYSTEM":"UTC","RCS_SIZE":"LARGE","PERIOD":"93.375","PERIAPSIS":"438.537","SITE":"AFETR","OBJECT_TYPE":"PAYLOAD","LAUNCH_DATE":"2021-05-15","TLE_LINE1":"1 48581U 21041AE  21235.91667824  .00010831  00000-0  25791-3 0  9990","MEAN_ANOMALY":"140.3983","CENTER_NAME":"EARTH","FILE":"3102124","MEAN_MOTION_DDOT":"0.0000000000000","COUNTRY_CODE":"US","OBJECT_ID":"2021-041AE","CLASSIFICATION_TYPE":"U","OBJECT_NAME":"STARLINK-2235","RA_OF_ASC_NODE":"6.6414","GP_ID":"183332053","MEAN_MOTION_DOT":"0.00010831"},{"SITE":"AFETR","PERIAPSIS":"438.312","PERIOD":"93.375","RCS_SIZE":"LARGE","TIME_SYSTEM":"UTC","MEAN_MOTION":"15.42164269","DECAY_DATE":null,"ELEMENT_SET_NO":"999","SEMIMAJOR_AXIS":"6817.860","EPOCH":"2021-08-23T22:00:00.999936","INCLINATION":"53.0561","NORAD_CAT_ID":"48582","APOAPSIS":"441.138","BSTAR":"0.00021548000000","EPHEMERIS_TYPE":"0","ARG_OF_PERICENTER":"39.7262","MEAN_ELEMENT_THEORY":"SGP4","REV_AT_EPOCH":"363","ECCENTRICITY":"0.00020720","TLE_LINE2":"2 48582  53.0561   5.2042 0002072  39.7262 148.5922 15.42164269  3635","REF_FRAME":"TEME","MEAN_MOTION_DOT":"0.00008978","GP_ID":"183331532","RA_OF_ASC_NODE":"5.2042","OBJECT_NAME":"STARLINK-2236","CLASSIFICATION_TYPE":"U","OBJECT_ID":"2021-041AF","COUNTRY_CODE":"US","MEAN_MOTION_DDOT":"0.0000000000000","FILE":"3102124","CENTER_NAME":"EARTH","MEAN_ANOMALY":"148.5922","TLE_LINE1":"1 48582U 21041AF  21235.91667824  .00008978  00000-0  21548-3 0  9996","LAUNCH_DATE":"2021-05-15","OBJECT_TYPE":"PAYLOAD"}];
